start=new Date('2022-03-23T00:00:00.000Z').valueOf();
sats=[{"PERIAPSIS":"546.144","CENTER_NAME":"EARTH","EPOCH":"2022-03-22T09:28:31.441440","TIME_SYSTEM":"UTC","RCS_SIZE":"LARGE","NORAD_CAT_ID":"48330","BSTAR":"-0.00003391800000","LAUNCH_DATE":"2021-04-29","ECCENTRICITY":"0.00015400","OBJECT_NAME":"STARLINK-2501","INCLINATION":"53.0528","ELEMENT_SET_NO":"999","SEMIMAJOR_AXIS":"6925.346","PERIOD":"95.592","RA_OF_ASC_NODE":"123.2719","TLE_LINE2":"2 48330  53.0528 123.2719 0001540  61.0095 299.1048 15.06400940 49745","MEAN_MOTION":"15.06400940","FILE":"3369829","MEAN_ELEMENT_THEORY":"SGP4","EPHEMERIS_TYPE":"0","COUNTRY_CODE":"US","APOAPSIS":"548.277","TLE_LINE1":"1 48330U 21036BG  22081.39480835 -.00000787  00000-0 -33918-4 0  9995","CLASSIFICATION_TYPE":"U","MEAN_ANOMALY":"299.1048","MEAN_MOTION_DDOT":"0.0000000000000","OBJECT_TYPE":"PAYLOAD","ARG_OF_PERICENTER":"61.0095","MEAN_MOTION_DOT":"-0.00000787","OBJECT_ID":"2021-036BG","REV_AT_EPOCH":"4974","REF_FRAME":"TEME","SITE":"AFETR","GP_ID":"199395577","DECAY_DATE":null},{"SEMIMAJOR_AXIS":"6925.348","INCLINATION":"53.0554","ELEMENT_SET_NO":"999","PERIOD":"95.592","ECCENTRICITY":"0.00017140","OBJECT_NAME":"STARLINK-2514","TLE_LINE2":"2 48331  53.0554 122.6952 0001714  54.9018 305.2132 15.06400020 49760","RA_OF_ASC_NODE":"122.6952","FILE":"3369829","MEAN_MOTION":"15.06400020","PERIAPSIS":"546.026","EPOCH":"2022-03-22T12:34:18.248448","CENTER_NAME":"EARTH","LAUNCH_DATE":"2021-04-29","BSTAR":"-0.00004577000000","TIME_SYSTEM":"UTC","RCS_SIZE":"LARGE","NORAD_CAT_ID":"48331","REV_AT_EPOCH":"4976","REF_FRAME":"TEME","OBJECT_ID":"2021-036BH","ARG_OF_PERICENTER":"54.9018","MEAN_MOTION_DOT":"-0.00000963","DECAY_DATE":null,"SITE":"AFETR","GP_ID":"199395827","EPHEMERIS_TYPE":"0","COUNTRY_CODE":"US","MEAN_ELEMENT_THEORY":"SGP4","OBJECT_TYPE":"PAYLOAD","APOAPSIS":"548.401","MEAN_ANOMALY":"305.2132","MEAN_MOTION_DDOT":"0.0000000000000","CLASSIFICATION_TYPE":"U","TLE_LINE1":"1 48331U 21036BH  22081.52382232 -.00000963  00000-0 -45770-4 0  9998"},{"COUNTRY_CODE":"US","EPHEMERIS_TYPE":"0","MEAN_ELEMENT_THEORY":"SGP4","OBJECT_TYPE":"PAYLOAD","MEAN_ANOMALY":"309.9658","MEAN_MOTION_DDOT":"0.0000000000000","CLASSIFICATION_TYPE":"U","TLE_LINE1":"1 48332U 21036BJ  22081.39018117 -.00000912  00000-0 -42356-4 0  9993","APOAPSIS":"548.423","REF_FRAME":"TEME","REV_AT_EPOCH":"4974","OBJECT_ID":"2021-036BJ","ARG_OF_PERICENTER":"50.1484","MEAN_MOTION_DOT":"-0.00000912","DECAY_DATE":null,"GP_ID":"199396084","SITE":"AFETR","EPOCH":"2022-03-22T09:21:51.653088","CENTER_NAME":"EARTH","PERIAPSIS":"546.015","LAUNCH_DATE":"2021-04-29","BSTAR":"-0.00004235600000","NORAD_CAT_ID":"48332","RCS_SIZE":"LARGE","TIME_SYSTEM":"UTC","PERIOD":"95.592","SEMIMAJOR_AXIS":"6925.354","ELEMENT_SET_NO":"999","INCLINATION":"53.0515","OBJECT_NAME":"STARLINK-2511","ECCENTRICITY":"0.00017380","FILE":"3369829","MEAN_MOTION":"15.06398262","TLE_LINE2":"2 48332  53.0515 123.2876 0001738  50.1484 309.9658 15.06398262 49747","RA_OF_ASC_NODE":"123.2876"},{"TLE_LINE2":"2 48333  53.0524 122.4169 0001662  57.4369 302.6780 15.06392327 49777","RA_OF_ASC_NODE":"122.4169","FILE":"3370190","MEAN_MOTION":"15.06392327","SEMIMAJOR_AXIS":"6925.372","ELEMENT_SET_NO":"999","INCLINATION":"53.0524","PERIOD":"95.593","ECCENTRICITY":"0.00016620","OBJECT_NAME":"STARLINK-2518","LAUNCH_DATE":"2021-04-29","BSTAR":"-0.00005841300000","RCS_SIZE":"LARGE","TIME_SYSTEM":"UTC","NORAD_CAT_ID":"48333","PERIAPSIS":"546.086","EPOCH":"2022-03-22T13:59:14.044416","CENTER_NAME":"EARTH","DECAY_DATE":null,"SITE":"AFETR","GP_ID":"199427596","REF_FRAME":"TEME","REV_AT_EPOCH":"4977","OBJECT_ID":"2021-036BK","MEAN_MOTION_DOT":"-0.00001151","ARG_OF_PERICENTER":"57.4369","OBJECT_TYPE":"PAYLOAD","APOAPSIS":"548.388","MEAN_MOTION_DDOT":"0.0000000000000","MEAN_ANOMALY":"302.6780","TLE_LINE1":"1 48333U 21036BK  22081.58280144 -.00001151  00000-0 -58413-4 0  9993","CLASSIFICATION_TYPE":"U","EPHEMERIS_TYPE":"0","COUNTRY_CODE":"US","MEAN_ELEMENT_THEORY":"SGP4"},{"EPOCH":"2022-03-22T20:16:04.731744","CENTER_NAME":"EARTH","PERIAPSIS":"545.990","NORAD_CAT_ID":"48334","RCS_SIZE":"LARGE","TIME_SYSTEM":"UTC","LAUNCH_DATE":"2021-04-29","BSTAR":"-0.00006932000000","OBJECT_NAME":"STARLINK-2470","ECCENTRICITY":"0.00017840","PERIOD":"95.592","SEMIMAJOR_AXIS":"6925.360","INCLINATION":"53.0537","ELEMENT_SET_NO":"999","FILE":"3370190","MEAN_MOTION":"15.06396266","TLE_LINE2":"2 48334  53.0537 121.2439 0001784  53.8585 306.2569 15.06396266 49810","RA_OF_ASC_NODE":"121.2439","MEAN_ELEMENT_THEORY":"SGP4","COUNTRY_CODE":"US","EPHEMERIS_TYPE":"0","MEAN_ANOMALY":"306.2569","MEAN_MOTION_DDOT":"0.0000000000000","CLASSIFICATION_TYPE":"U","TLE_LINE1":"1 48334U 21036BL  22081.84449921 -.00001314  00000-0 -69320-4 0  9993","APOAPSIS":"548.460","OBJECT_TYPE":"PAYLOAD","OBJECT_ID":"2021-036BL","ARG_OF_PERICENTER":"53.8585","MEAN_MOTION_DOT":"-0.00001314","REF_FRAME":"TEME","REV_AT_EPOCH":"4981","GP_ID":"199428346","SITE":"AFETR","DECAY_DATE":null},{"OBJECT_NAME":"STARLINK-2441","ECCENTRICITY":"0.00013610","PERIOD":"95.591","INCLINATION":"53.0537","ELEMENT_SET_NO":"999","SEMIMAJOR_AXIS":"6925.317","MEAN_MOTION":"15.06410267","FILE":"3370190","RA_OF_ASC_NODE":"121.2736","TLE_LINE2":"2 48335  53.0537 121.2736 0001361  77.4989 282.6153 15.06410267 49816","CENTER_NAME":"EARTH","EPOCH":"2022-03-22T20:10:45.624576","PERIAPSIS":"546.240","NORAD_CAT_ID":"48335","TIME_SYSTEM":"UTC","RCS_SIZE":"LARGE","BSTAR":"0.00003417000000","LAUNCH_DATE":"2021-04-29","ARG_OF_PERICENTER":"77.4989","MEAN_MOTION_DOT":"0.00000228","OBJECT_ID":"2021-036BM","REV_AT_EPOCH":"4981","REF_FRAME":"TEME","GP_ID":"199429095","SITE":"AFETR","DECAY_DATE":null,"MEAN_ELEMENT_THEORY":"SGP4","COUNTRY_CODE":"US","EPHEMERIS_TYPE":"0","TLE_LINE1":"1 48335U 21036BM  22081.84080584  .00000228  00000-0  34170-4 0  9996","CLASSIFICATION_TYPE":"U","MEAN_MOTION_DDOT":"0.0000000000000","MEAN_ANOMALY":"282.6153","APOAPSIS":"548.125","OBJECT_TYPE":"PAYLOAD"},{"DECAY_DATE":null,"GP_ID":"199396831","SITE":"AFETR","REF_FRAME":"TEME","REV_AT_EPOCH":"4872","MEAN_MOTION_DOT":"-0.00000827","ARG_OF_PERICENTER":"50.3024","OBJECT_ID":"2021-038A","OBJECT_TYPE":"PAYLOAD","CLASSIFICATION_TYPE":"U","TLE_LINE1":"1 48353U 21038A   22081.31555866 -.00000827  00000-0 -36590-4 0  9995","MEAN_MOTION_DDOT":"0.0000000000000","MEAN_ANOMALY":"309.8142","APOAPSIS":"548.616","COUNTRY_CODE":"US","EPHEMERIS_TYPE":"0","MEAN_ELEMENT_THEORY":"SGP4","MEAN_MOTION":"15.06396821","FILE":"3369829","RA_OF_ASC_NODE":"23.6312","TLE_LINE2":"2 48353  53.0556  23.6312 0002011  50.3024 309.8142 15.06396821 48723","PERIOD":"95.592","ELEMENT_SET_NO":"999","INCLINATION":"53.0556","SEMIMAJOR_AXIS":"6925.358","ECCENTRICITY":"0.00020110","OBJECT_NAME":"STARLINK-2613","BSTAR":"-0.00003659000000","LAUNCH_DATE":"2021-05-04","NORAD_CAT_ID":"48353","RCS_SIZE":"LARGE","TIME_SYSTEM":"UTC","CENTER_NAME":"EARTH","EPOCH":"2022-03-22T07:34:24.268224","PERIAPSIS":"545.831"},{"TLE_LINE1":"1 48354U 21038B   22081.24552560  .00000260  00000-0  36387-4 0  9999","CLASSIFICATION_TYPE":"U","MEAN_MOTION_DDOT":"0.0000000000000","MEAN_ANOMALY":"307.8949","APOAPSIS":"548.273","OBJECT_TYPE":"PAYLOAD","MEAN_ELEMENT_THEORY":"SGP4","COUNTRY_CODE":"US","EPHEMERIS_TYPE":"0","GP_ID":"199395085","SITE":"AFETR","DECAY_DATE":null,"MEAN_MOTION_DOT":"0.00000260","ARG_OF_PERICENTER":"52.2177","OBJECT_ID":"2021-038B","REF_FRAME":"TEME","REV_AT_EPOCH":"4871","NORAD_CAT_ID":"48354","RCS_SIZE":"LARGE","TIME_SYSTEM":"UTC","BSTAR":"0.00003638700000","LAUNCH_DATE":"2021-05-04","CENTER_NAME":"EARTH","EPOCH":"2022-03-22T05:53:33.411840","PERIAPSIS":"546.174","MEAN_MOTION":"15.06396776","FILE":"3369829","RA_OF_ASC_NODE":"23.9421","TLE_LINE2":"2 48354  53.0576  23.9421 0001516  52.2177 307.8949 15.06396776 48710","OBJECT_NAME":"STARLINK-2674","ECCENTRICITY":"0.00015160","PERIOD":"95.592","ELEMENT_SET_NO":"999","INCLINATION":"53.0576","SEMIMAJOR_AXIS":"6925.358"},{"CENTER_NAME":"EARTH","EPOCH":"2022-03-22T13:45:56.630304","PERIAPSIS":"546.040","NORAD_CAT_ID":"48355","TIME_SYSTEM":"UTC","RCS_SIZE":"LARGE","BSTAR":"0.00015649000000","LAUNCH_DATE":"2021-05-04","ECCENTRICITY":"0.00016630","OBJECT_NAME":"STARLINK-2635","PERIOD":"95.592","ELEMENT_SET_NO":"999","INCLINATION":"53.0553","SEMIMAJOR_AXIS":"6925.327","MEAN_MOTION":"15.06407106","FILE":"3370014","RA_OF_ASC_NODE":"22.4674","TLE_LINE2":"2 48355  53.0553  22.4674 0001663  62.1654 297.9503 15.06407106 49359","MEAN_ELEMENT_THEORY":"SGP4","COUNTRY_CODE":"US","EPHEMERIS_TYPE":"0","TLE_LINE1":"1 48355U 21038C   22081.57357211  .00002051  00000-0  15649-3 0  9999","CLASSIFICATION_TYPE":"U","MEAN_MOTION_DDOT":"0.0000000000000","MEAN_ANOMALY":"297.9503","APOAPSIS":"548.343","OBJECT_TYPE":"PAYLOAD","MEAN_MOTION_DOT":"0.00002051","ARG_OF_PERICENTER":"62.1654","OBJECT_ID":"2021-038C","REV_AT_EPOCH":"4935","REF_FRAME":"TEME","GP_ID":"199403284","SITE":"AFETR","DECAY_DATE":null},{"SEMIMAJOR_AXIS":"6925.365","ELEMENT_SET_NO":"999","INCLINATION":"53.0563","PERIOD":"95.592","ECCENTRICITY":"0.00019840","OBJECT_NAME":"STARLINK-2637","TLE_LINE2":"2 48356  53.0563  21.6000 0001984  46.7214 313.3941 15.06394757 49379","RA_OF_ASC_NODE":"21.6000","FILE":"3369978","MEAN_MOTION":"15.06394757","PERIAPSIS":"545.856","EPOCH":"2022-03-22T18:27:15.588288","CENTER_NAME":"EARTH","LAUNCH_DATE":"2021-05-04","BSTAR":"-0.00007923300000","RCS_SIZE":"LARGE","TIME_SYSTEM":"UTC","NORAD_CAT_ID":"48356","REV_AT_EPOCH":"4937","REF_FRAME":"TEME","OBJECT_ID":"2021-038D","ARG_OF_PERICENTER":"46.7214","MEAN_MOTION_DOT":"-0.00001462","DECAY_DATE":null,"SITE":"AFETR","GP_ID":"199402671","EPHEMERIS_TYPE":"0","COUNTRY_CODE":"US","MEAN_ELEMENT_THEORY":"SGP4","OBJECT_TYPE":"PAYLOAD","APOAPSIS":"548.604","MEAN_MOTION_DDOT":"0.0000000000000","MEAN_ANOMALY":"313.3941","CLASSIFICATION_TYPE":"U","TLE_LINE1":"1 48356U 21038D   22081.76893042 -.00001462  00000-0 -79233-4 0  9995"}];
